{
  "type": "FeatureCollection",
  "features": [
    {
      "type": "Feature",
      "id": "synthetic-01-rooftop-inspection",
      "properties": {
        "altitude_reference": "above_ground"
      },
      "geometry": {
        "type": "LineString",
        "coordinates": [
          [
            151.2093,
            -33.8688,
            12.4
          ],
          [
            151.20944,
            -33.86868,
            15.1
          ],
          [
            151.20958,
            -33.86856,
            20.6
          ],
          [
            151.20972,
            -33.86844,
            24.8
          ],
          [
            151.20986,
            -33.86832,
            28.4
          ]
        ]
      }
    }
  ]
}
