{
  "type": "FeatureCollection",
  "features": [
    {
      "type": "Feature",
      "properties": {
        "altitude_reference": "above_ground"
      },
      "geometry": {
        "type": "LineString",
        "coordinates": [
          [
            151.2093,
            -33.8688,
            0.0
          ],
          [
            151.2093,
            -33.8688,
            24.0
          ],
          [
            151.20905,
            -33.8685,
            24.0
          ],
          [
            151.20965,
            -33.8685,
            24.0
          ],
          [
            151.2093,
            -33.8688,
            24.0
          ],
          [
            151.2093,
            -33.8688,
            0.0
          ]
        ]
      }
    }
  ]
}
