{
  "type": "FeatureCollection",
  "features": [
    {
      "type": "Feature",
      "id": "synthetic-03-coastal-turbine",
      "properties": {
        "altitude_reference": "above_ground"
      },
      "geometry": {
        "type": "LineString",
        "coordinates": [
          [
            150.8931,
            -34.4278,
            12.0
          ],
          [
            150.89324,
            -34.42768,
            15.6
          ],
          [
            150.89338,
            -34.42756,
            19.8
          ],
          [
            150.89352,
            -34.42744,
            24.9
          ],
          [
            150.89366,
            -34.42732,
            27.8
          ]
        ]
      }
    }
  ]
}
